{
  "type": "FeatureCollection",
  "features": [
    {
      "type": "Feature",
      "properties": {
        "norad_id": 33886,
        "name": "IRIDIUM 33 DEB",
        "group": "iridium-33-debris",
        "lat": 25.950887576714557,
        "lon": -113.92658893706935,
        "alt_km": 771.3549029870437,
        "timestamp": "2025-12-11T07:02:24.115213+00:00",
        "meta_object_name": "IRIDIUM 33 DEB",
        "meta_object_id": "1997-051BF",
        "meta_epoch": "2025-12-10T15:51:52.243776",
        "meta_mean_motion": 14.36048248,
        "meta_eccentricity": 0.00121905,
        "meta_inclination": 86.3829,
        "meta_ra_of_asc_node": 68.1036,
        "meta_arg_of_pericenter": 249.8631,
        "meta_mean_anomaly": 237.318,
        "meta_ephemeris_type": 0,
        "meta_classification_type": "U",
        "meta_norad_cat_id": 33886,
        "meta_element_set_no": 999,
        "meta_rev_at_epoch": 88022,
        "meta_bstar": 0.00032444005,
        "meta_mean_motion_dot": 9.63e-06,
        "meta_mean_motion_ddot": 0,
        "tle_line1": "1 33886U 97051BF  25344.66102134  .00000963  00000+0  32444-3 0  9998",
        "tle_line2": "2 33886  86.3829  68.1036 0012190 249.8631 237.3180 14.36048248880220"
      },
      "geometry": {
        "type": "Point",
        "coordinates": [
          -113.92658893706935,
          25.950887576714557
        ]
      }
    },
    {
      "type": "Feature",
      "properties": {
        "norad_id": 33887,
        "name": "IRIDIUM 33 DEB",
        "group": "iridium-33-debris",
        "lat": 83.09741912114123,
        "lon": 36.283240185703455,
        "alt_km": 762.9384350364016,
        "timestamp": "2025-12-11T07:02:24.115224+00:00",
        "meta_object_name": "IRIDIUM 33 DEB",
        "meta_object_id": "1997-051BG",
        "meta_epoch": "2025-12-10T19:47:20.923872",
        "meta_mean_motion": 14.37218364,
        "meta_eccentricity": 0.00042909,
        "meta_inclination": 86.3045,
        "meta_ra_of_asc_node": 4.2177,
        "meta_arg_of_pericenter": 235.2487,
        "meta_mean_anomaly": 304.9926,
        "meta_ephemeris_type": 0,
        "meta_classification_type": "U",
        "meta_norad_cat_id": 33887,
        "meta_element_set_no": 999,
        "meta_rev_at_epoch": 88137,
        "meta_bstar": 0.00022078837,
        "meta_mean_motion_dot": 6.77e-06,
        "meta_mean_motion_ddot": 0,
        "tle_line1": "1 33887U 97051BG  25344.82454773  .00000677  00000+0  22079-3 0  9991",
        "tle_line2": "2 33887  86.3045   4.2177 0004290 235.2487 304.9926 14.37218364881373"
      },
      "geometry": {
        "type": "Point",
        "coordinates": [
          36.283240185703455,
          83.09741912114123
        ]
      }
    },
    {
      "type": "Feature",
      "properties": {
        "norad_id": 33953,
        "name": "IRIDIUM 33 DEB",
        "group": "iridium-33-debris",
        "lat": -25.891009437317678,
        "lon": -123.83410706137215,
        "alt_km": 716.183554591661,
        "timestamp": "2025-12-11T07:02:24.115234+00:00",
        "meta_object_name": "IRIDIUM 33 DEB",
        "meta_object_id": "1997-051BN",
        "meta_epoch": "2025-12-09T23:18:17.054208",
        "meta_mean_motion": 14.5527898,
        "meta_eccentricity": 0.00184582,
        "meta_inclination": 86.384,
        "meta_ra_of_asc_node": 54.9808,
        "meta_arg_of_pericenter": 111.2598,
        "meta_mean_anomaly": 11.2257,
        "meta_ephemeris_type": 0,
        "meta_classification_type": "U",
        "meta_norad_cat_id": 33953,
        "meta_element_set_no": 999,
        "meta_rev_at_epoch": 88263,
        "meta_bstar": 0.0016887129,
        "meta_mean_motion_dot": 7.353e-05,
        "meta_mean_motion_ddot": 0,
        "tle_line1": "1 33953U 97051BN  25343.97103072  .00007353  00000+0  16887-2 0  9990",
        "tle_line2": "2 33953  86.3840  54.9808 0018458 111.2598  11.2257 14.55278980882635"
      },
      "geometry": {
        "type": "Point",
        "coordinates": [
          -123.83410706137215,
          -25.891009437317678
        ]
      }
    },
    {
      "type": "Feature",
      "properties": {
        "norad_id": 33960,
        "name": "IRIDIUM 33 DEB",
        "group": "iridium-33-debris",
        "lat": -34.86313730728091,
        "lon": 112.81279087036931,
        "alt_km": 624.3741541290001,
        "timestamp": "2025-12-11T07:02:24.115245+00:00",
        "meta_object_name": "IRIDIUM 33 DEB",
        "meta_object_id": "1997-051BV",
        "meta_epoch": "2025-12-10T14:42:23.035104",
        "meta_mean_motion": 14.85002414,
        "meta_eccentricity": 0.0007488,
        "meta_inclination": 86.2533,
        "meta_ra_of_asc_node": 290.517,
        "meta_arg_of_pericenter": 65.6834,
        "meta_mean_anomaly": 113.1281,
        "meta_ephemeris_type": 0,
        "meta_classification_type": "U",
        "meta_norad_cat_id": 33960,
        "meta_element_set_no": 999,
        "meta_rev_at_epoch": 88835,
        "meta_bstar": 0.0050643,
        "meta_mean_motion_dot": 0.00043449,
        "meta_mean_motion_ddot": 0,
        "tle_line1": "1 33960U 97051BV  25344.61276661  .00043449  00000+0  50643-2 0  9999",
        "tle_line2": "2 33960  86.2533 290.5170 0007488  65.6834 113.1281 14.85002414888351"
      },
      "geometry": {
        "type": "Point",
        "coordinates": [
          112.81279087036931,
          -34.86313730728091
        ]
      }
    },
    {
      "type": "Feature",
      "properties": {
        "norad_id": 33966,
        "name": "IRIDIUM 33 DEB",
        "group": "iridium-33-debris",
        "lat": 1.327490247480756,
        "lon": 46.73168244680793,
        "alt_km": 734.9096423664596,
        "timestamp": "2025-12-11T07:02:24.115256+00:00",
        "meta_object_name": "IRIDIUM 33 DEB",
        "meta_object_id": "1997-051CB",
        "meta_epoch": "2025-12-10T21:54:59.590080",
        "meta_mean_motion": 14.49582013,
        "meta_eccentricity": 0.00071912,
        "meta_inclination": 86.3922,
        "meta_ra_of_asc_node": 46.811,
        "meta_arg_of_pericenter": 194.3278,
        "meta_mean_anomaly": 344.5911,
        "meta_ephemeris_type": 0,
        "meta_classification_type": "U",
        "meta_norad_cat_id": 33966,
        "meta_element_set_no": 999,
        "meta_rev_at_epoch": 88415,
        "meta_bstar": 0.00082457788,
        "meta_mean_motion_dot": 3.184e-05,
        "meta_mean_motion_ddot": 0,
        "tle_line1": "1 33966U 97051CB  25344.91318970  .00003184  00000+0  82458-3 0  9990",
        "tle_line2": "2 33966  86.3922  46.8110 0007191 194.3278 344.5911 14.49582013884151"
      },
      "geometry": {
        "type": "Point",
        "coordinates": [
          46.73168244680793,
          1.327490247480756
        ]
      }
    },
    {
      "type": "Feature",
      "properties": {
        "norad_id": 34071,
        "name": "IRIDIUM 33 DEB",
        "group": "iridium-33-debris",
        "lat": 68.0806265996446,
        "lon": 27.595465440807,
        "alt_km": 715.7302562919895,
        "timestamp": "2025-12-11T07:02:24.115267+00:00",
        "meta_object_name": "IRIDIUM 33 DEB",
        "meta_object_id": "1997-051CE",
        "meta_epoch": "2025-12-10T12:30:01.391616",
        "meta_mean_motion": 14.49448907,
        "meta_eccentricity": 0.000987,
        "meta_inclination": 86.3457,
        "meta_ra_of_asc_node": 18.7926,
        "meta_arg_of_pericenter": 113.5501,
        "meta_mean_anomaly": 246.6741,
        "meta_ephemeris_type": 0,
        "meta_classification_type": "U",
        "meta_norad_cat_id": 34071,
        "meta_element_set_no": 999,
        "meta_rev_at_epoch": 88302,
        "meta_bstar": 0.00087238,
        "meta_mean_motion_dot": 3.36e-05,
        "meta_mean_motion_ddot": 0,
        "tle_line1": "1 34071U 97051CE  25344.52084944  .00003360  00000+0  87238-3 0  9993",
        "tle_line2": "2 34071  86.3457  18.7926 0009870 113.5501 246.6741 14.49448907883024"
      },
      "geometry": {
        "type": "Point",
        "coordinates": [
          27.595465440807,
          68.0806265996446
        ]
      }
    },
    {
      "type": "Feature",
      "properties": {
        "norad_id": 34077,
        "name": "IRIDIUM 33 DEB",
        "group": "iridium-33-debris",
        "lat": -11.152632287782824,
        "lon": -127.14177495652874,
        "alt_km": 688.2808019950526,
        "timestamp": "2025-12-11T07:02:24.115277+00:00",
        "meta_object_name": "IRIDIUM 33 DEB",
        "meta_object_id": "1997-051CL",
        "meta_epoch": "2025-12-10T22:18:50.570208",
        "meta_mean_motion": 14.64796213,
        "meta_eccentricity": 0.00103995,
        "meta_inclination": 86.386,
        "meta_ra_of_asc_node": 52.3044,
        "meta_arg_of_pericenter": 45.2897,
        "meta_mean_anomaly": 29.6712,
        "meta_ephemeris_type": 0,
        "meta_classification_type": "U",
        "meta_norad_cat_id": 34077,
        "meta_element_set_no": 999,
        "meta_rev_at_epoch": 88306,
        "meta_bstar": 0.0022672464,
        "meta_mean_motion_dot": 0.00012131,
        "meta_mean_motion_ddot": 0,
        "tle_line1": "1 34077U 97051CL  25344.92975197  .00012131  00000+0  22672-2 0  9998",
        "tle_line2": "2 34077  86.3860  52.3044 0010399  45.2897  29.6712 14.64796213883064"
      },
      "geometry": {
        "type": "Point",
        "coordinates": [
          -127.14177495652874,
          -11.152632287782824
        ]
      }
    }
  ]
}